IRIDIUM 35 [+]          
1 24966U 97056B   17346.25408965  .00000177  00000-0  56032-4 0  9999
2 24966  86.3983 244.2288 0001973  83.4869 276.6551 14.34214215 58051
